[{"OBJECT_NAME":"YAOGAN-36 04C","OBJECT_ID":"2022-171E","EPOCH":"2026-03-09T18:55:44.889600","MEAN_MOTION":15.29852307,"ECCENTRICITY":0.00066848,"INCLINATION":34.9797,"RA_OF_ASC_NODE":96.6578,"ARG_OF_PERICENTER":275.3761,"MEAN_ANOMALY":84.6192,"EPHEMERIS_TYPE":0,"CLASSIFICATION_TYPE":"U","NORAD_CAT_ID":54750,"ELEMENT_SET_NO":999,"REV_AT_EPOCH":18024,"BSTAR":0.00054591902,"MEAN_MOTION_DOT":0.00016196,"MEAN_MOTION_DDOT":0},{"OBJECT_NAME":"STARLINK-33584","OBJECT_ID":"2025-015D","EPOCH":"2026-03-09T21:28:31.618560","MEAN_MOTION":15.30194261,"ECCENTRICITY":0.00012812,"INCLINATION":53.1619,"RA_OF_ASC_NODE":321.4267,"ARG_OF_PERICENTER":85.3339,"MEAN_ANOMALY":274.7808,"EPHEMERIS_TYPE":0,"CLASSIFICATION_TYPE":"U","NORAD_CAT_ID":62761,"ELEMENT_SET_NO":999,"REV_AT_EPOCH":6451,"BSTAR":0.0010987009,"MEAN_MOTION_DOT":0.00032317,"MEAN_MOTION_DDOT":0}]
